#aV2015  4 22  0  0  0.00000000     288 DD+AD WGS84 FIT  NGA
## 1841 259200.00000000   300.00000000 57134 0.0000000000000
+   31     1  2  3  4  5  6  7  9 10 11 12 13 14 15 16 17 18
+         19 20 21 22 23 24 25 26 27 28 29 30 31 32  0  0  0
+          0  0  0  0  0  0  0  0  0  0  0  0  0  0  0  0  0
+          0  0  0  0  0  0  0  0  0  0  0  0  0  0  0  0  0
+          0  0  0  0  0  0  0  0  0  0  0  0  0  0  0  0  0
++         2  2  2  2  2  2  2  2  2  2  2  2  2  2  2  2  2
++         2  2  2  2  2  2  2  2  2  2  2  2  2  2  0  0  0
++         0  0  0  0  0  0  0  0  0  0  0  0  0  0  0  0  0
++         0  0  0  0  0  0  0  0  0  0  0  0  0  0  0  0  0
++         0  0  0  0  0  0  0  0  0  0  0  0  0  0  0  0  0
%c cc cc ccc ccc cccc cccc cccc cccc ccccc ccccc ccccc ccccc
%c cc cc ccc ccc cccc cccc cccc cccc ccccc ccccc ccccc ccccc
%f  0.0000000  0.000000000  0.00000000000  0.000000000000000
%f  0.0000000  0.000000000  0.00000000000  0.000000000000000
%i    0    0    0    0      0      0      0      0         0
%i    0    0    0    0      0      0      0      0         0
/*      NGA, ST. LOUIS,MO.                                  
/*   EPHEMERIS COMPUTED FROM  1 DAYS OF DATA                
/*   EPOCHA SMOOTHER                                       
/* CCCCCCCCCCCCCCCCCCCCCCCCCCCCCCCCCCCCCCCCCCCCCCCCCCCCCCCCC
*  2015  4 22 10  0  0.00000000
P  1 -11894.951124  22063.710476  -8544.740692     -6.482370                    
V  1  -9271.939332   6227.930146  29334.031256      0.004423                    
P  2  20520.625838 -12077.225172 -10913.870867    561.301702                    
V  2  -6764.631857  13390.701971 -27107.500189      0.023280                    
P  3  -5361.784188  14389.008316 -21662.027490    304.786828                    
V  3 -26914.943733  -5817.562869   2755.548554      0.128304                    
P  4 -17425.632717  19841.215176    274.809575    -12.120256                    
V  4  -2349.111243  -2996.173464  31443.733807     -0.012297                    
P  5  22735.514903  -4933.279741  12928.181119   -250.712456                    
V  5  15648.401250   5683.758351 -25068.909370      0.047417                    
P  6  16806.626489   2518.398458 -20409.005809    142.166503                    
V  6 -16472.627028  20032.366547 -11100.406491      0.096989                    
P  7    159.616413  18683.912670  18828.712601    457.076664                    
V  7 -17350.066322  16367.002938 -16536.776806      0.026787                    
P  9   6817.699857  25552.881162  -2353.866052   -142.204308                    
V  9  -3707.585895  -1901.119128 -31516.229938     -0.077197                    
P 10  24251.197879   9813.484115  -6129.153547   -171.910963                    
V 10  -7668.674908   1280.167849 -29779.552937     -0.015130                    
P 11 -10344.217305  24362.427490    502.985329   -573.136994                    
V 11  -4226.260402  -3066.419554  30243.362602     -0.026807                    
P 12   8750.790343 -12526.212015 -21787.678959    286.852353                    
V 12  26422.262151   7251.938128   6687.472181      0.031149                    
P 13  13544.089209  -6917.403873  21639.642031   -107.903355                    
V 13   6062.891750  27104.743878   4717.308933     -0.034020                    
P 14 -14517.048305 -16648.983320 -14620.787538     69.019564                    
V 14  -2693.951818 -18811.427806  23564.021445     -0.028547                    
P 15   6984.973193 -18321.020390  17681.910993   -244.995642                    
V 15  10272.611721  20521.795231  17434.366829     -0.021994                    
P 16 -23212.232061   2409.862051  12958.489270   -136.306118                    
V 16 -15451.168185  -5591.978703 -26124.555385      0.036127                    
P 17  14522.387691  17591.882839 -13484.722627   -167.554030                    
V 17   2944.084739  17363.418947  25072.510190     -0.018310                    
P 18 -15220.168500 -15267.675843  16201.322792    395.823851                    
V 18  19745.225539   1416.038130  20205.180944      0.028759                    
P 19 -10153.520046  14801.442409  19230.824362   -508.122829                    
V 19  -7016.275461 -23986.365067  15072.743159     -0.012237                    
P 20  25862.403468  -1142.981411   6074.423742    312.719465                    
V 20   7388.204053   4680.303873 -29612.810576      0.037379                    
P 21  -4681.683336 -17377.286329  20125.667902   -439.009635                    
V 21  16944.748951 -17413.181613 -11873.716668     -0.037071                    
P 22 -23839.155774  -9848.554421   6943.057689    342.376075                    
V 22   9047.870675  -1946.951661  29099.274407      0.040291                    
P 23  -1187.957952  23509.000517 -11721.711306   -103.529985                    
V 23  -7618.713359 -13598.605767 -26618.360815     -0.025068                    
P 24  13697.658863 -21963.042253  -5636.841519    -47.064038                    
V 24   6993.073775  -3404.007751  30592.667191     -0.006391                    
P 25  -5797.900141 -15549.082325 -20870.124293    -22.056023                    
V 25  25780.935312   4680.889357 -10534.436407     -0.035667                    
P 26 -26192.642495  -3233.592219   2999.983949     21.480878                    
V 26  -3175.765740  -3515.128663 -31440.678344      0.062389                    
P 27 -14539.441136   4033.717256  21847.566569     66.743034                    
V 27  -8770.740089 -26326.134835   -866.492896      0.026669                    
P 28  20380.498316  13411.050106  11222.239581    434.705168                    
V 28 -13139.250276  -2205.311712  27972.678105      0.025953                    
P 29  -3594.387342 -25882.868022  -4886.097998    605.860517                    
V 29   3886.419119   5389.579382 -31184.836014      0.024636                    
P 30   9837.298939  11768.915760  21670.464692    -68.662682                    
V 30 -19933.652305  19035.870508  -1346.237107      0.041950                    
P 31 -18535.162284    789.029249 -19007.989018    317.936770                    
V 31  15972.942018 -18280.439811 -15892.622111     -0.010690                    
P 32 -19191.614893   6890.750901 -16738.793464   -169.821951                    
V 32 -19937.883976  -8341.030855  19977.453127      0.095174                    
EOF
